CCSDS_OMM_VERS,COMMENT,CREATION_DATE,ORIGINATOR,OBJECT_NAME,OBJECT_ID,CENTER_NAME,REF_FRAME,TIME_SYSTEM,MEAN_ELEMENT_THEORY,EPOCH,MEAN_MOTION,ECCENTRICITY,INCLINATION,RA_OF_ASC_NODE,ARG_OF_PERICENTER,MEAN_ANOMALY,EPHEMERIS_TYPE,CLASSIFICATION_TYPE,NORAD_CAT_ID,ELEMENT_SET_NO,REV_AT_EPOCH,BSTAR,MEAN_MOTION_DOT,MEAN_MOTION_DDOT,SEMIMAJOR_AXIS,PERIOD,APOAPSIS,PERIAPSIS,OBJECT_TYPE,RCS_SIZE,COUNTRY_CODE,LAUNCH_DATE,SITE,DECAY_DATE,FILE,GP_ID,TLE_LINE0,TLE_LINE1,TLE_LINE2
"2.0","GENERATED VIA SPACE-TRACK.ORG API","2013-12-18T14:40:02","18 SPCS","PAYLOAD B","2013-037B","EARTH","TEME","UTC","SGP4","2013-12-18T13:26:23.644031","14.67325174","0.00034080","98.0486","7.6273","230.7995","129.2900","0","U","39209","999","2222","0.00015186000000","0.00000809","0.0000000000000","7047.761","98.137","672.028","667.224","PAYLOAD","LARGE","PRC","2013-07-19","TSC","","1600265","94648642","0 PAYLOAD B","1 39209U 13037B   13352.55999588  .00000809  00000-0  15186-3 0  9990","2 39209 098.0486 007.6273 0003408 230.7995 129.2900 14.67325174 22226"
"2.0","GENERATED VIA SPACE-TRACK.ORG API","2013-12-18T19:10:07","18 SPCS","PAYLOAD B","2013-037B","EARTH","TEME","UTC","SGP4","2013-12-18T18:20:59.078688","14.67325254","0.00034000","98.0485","7.8282","229.2235","130.8667","0","U","39209","999","2225","0.00014874000000","0.00000792","0.0000000000000","7047.761","98.137","672.022","667.230","PAYLOAD","LARGE","PRC","2013-07-19","TSC","","1600366","94650471","0 PAYLOAD B","1 39209U 13037B   13352.76457267  .00000792  00000-0  14874-3 0  9990","2 39209 098.0485 007.8282 0003400 229.2235 130.8667 14.67325254 22259"
"2.0","GENERATED VIA SPACE-TRACK.ORG API","2013-12-18T20:37:20","18 SPCS","PAYLOAD B","2013-037B","EARTH","TEME","UTC","SGP4","2013-12-18T19:59:10.891680","14.67325357","0.00033990","98.0485","7.8952","229.0354","131.0556","0","U","39209","999","2226","0.00014856000000","0.00000791","0.0000000000000","7047.761","98.137","672.021","667.230","PAYLOAD","LARGE","PRC","2013-07-19","TSC","","1600370","94650475","0 PAYLOAD B","1 39209U 13037B   13352.83276495  .00000791  00000-0  14856-3 0  9999","2 39209 098.0485 007.8952 0003399 229.0354 131.0556 14.67325357 22265"
"2.0","GENERATED VIA SPACE-TRACK.ORG API","2013-12-19T00:11:43","18 SPCS","PAYLOAD C","2013-037C","EARTH","TEME","UTC","SGP4","2013-12-18T20:31:14.616191","14.95196186","0.00318680","97.6883","7.8998","252.6988","107.0744","0","U","39210","999","2262","0.00014926000000","0.00001597","0.0000000000000","6959.905","96.308","603.950","559.590","PAYLOAD","LARGE","PRC","2013-07-19","TSC","","1600512","94653647","0 PAYLOAD C","1 39210U 13037C   13352.85503028  .00001597  00000-0  14926-3 0  9991","2 39210 097.6883 007.8998 0031868 252.6988 107.0744 14.95196186 22620"
"2.0","GENERATED VIA SPACE-TRACK.ORG API","2013-12-18T22:35:54","18 SPCS","PAYLOAD A","2013-037A","EARTH","TEME","UTC","SGP4","2013-12-18T21:14:43.830527","14.67962056","0.00073460","98.0487","8.1440","242.9061","117.1402","0","U","39208","999","2229","0.00009138000000","0.00000475","0.0000000000000","7045.723","98.095","672.763","662.412","PAYLOAD","LARGE","PRC","2013-07-19","TSC","","1600405","94651180","0 PAYLOAD A","1 39208U 13037A   13352.88522952  .00000475  00000-0  91380-4 0  9992","2 39208 098.0487 008.1440 0007346 242.9061 117.1402 14.67962056 22298"
"2.0","GENERATED VIA SPACE-TRACK.ORG API","2013-12-18T22:52:14","18 SPCS","PAYLOAD B","2013-037B","EARTH","TEME","UTC","SGP4","2013-12-18T21:37:22.692576","14.67325512","0.00033870","98.0485","7.9622","229.2160","130.8753","0","U","39209","999","2227","0.00014897000000","0.00000793","0.0000000000000","7047.760","98.137","672.012","667.238","PAYLOAD","LARGE","PRC","2013-07-19","TSC","","1600428","94651726","0 PAYLOAD B","1 39209U 13037B   13352.90095709  .00000793  00000-0  14897-3 0  9991","2 39209 098.0485 007.9622 0003387 229.2160 130.8753 14.67325512 22274"
"2.0","GENERATED VIA SPACE-TRACK.ORG API","2013-12-19T03:56:00","18 SPCS","PAYLOAD A","2013-037A","EARTH","TEME","UTC","SGP4","2013-12-19T02:09:11.498688","14.67962929","0.00073770","98.0485","8.3452","242.4597","117.5857","0","U","39208","999","2232","0.00010923000000","0.00000577","0.0000000000000","7045.720","98.095","672.782","662.387","PAYLOAD","LARGE","PRC","2013-07-19","TSC","","1600547","94653819","0 PAYLOAD A","1 39208U 13037A   13353.08971642  .00000577  00000-0  10923-3 0  9995","2 39208 098.0485 008.3452 0007377 242.4597 117.5857 14.67962929 22325"
"2.0","GENERATED VIA SPACE-TRACK.ORG API","2013-12-19T04:31:16","18 SPCS","PAYLOAD B","2013-037B","EARTH","TEME","UTC","SGP4","2013-12-19T02:31:58.070207","14.67325836","0.00034040","98.0485","8.1632","228.3593","131.7320","0","U","39209","999","2230","0.00014577000000","0.00000775","0.0000000000000","7047.759","98.137","672.023","667.225","PAYLOAD","LARGE","PRC","2013-07-19","TSC","","1600550","94653822","0 PAYLOAD B","1 39209U 13037B   13353.10553322  .00000775  00000-0  14577-3 0  9999","2 39209 098.0485 008.1632 0003404 228.3593 131.7320 14.67325836 22301"
"2.0","GENERATED VIA SPACE-TRACK.ORG API","2013-12-19T08:03:35","18 SPCS","PAYLOAD C","2013-037C","EARTH","TEME","UTC","SGP4","2013-12-19T04:33:05.061887","14.95197918","0.00319140","97.6882","8.2278","251.4991","108.2763","0","U","39210","999","2267","0.00015844000000","0.00001699","0.0000000000000","6959.899","96.308","603.976","559.553","PAYLOAD","LARGE","PRC","2013-07-19","TSC","","1600722","94656838","0 PAYLOAD C","1 39210U 13037C   13353.18964192  .00001699  00000-0  15844-3 0  9994","2 39210 097.6882 008.2278 0031914 251.4991 108.2763 14.95197918 22671"
"2.0","GENERATED VIA SPACE-TRACK.ORG API","2013-12-19T12:50:19","18 SPCS","PAYLOAD C","2013-037C","EARTH","TEME","UTC","SGP4","2013-12-19T07:45:49.245695","14.95198485","0.00319120","97.6882","8.3590","251.0358","108.7409","0","U","39210","999","2269","0.00015990000000","0.00001716","0.0000000000000","6959.898","96.308","603.973","559.552","PAYLOAD","LARGE","PRC","2013-07-19","TSC","","1600780","94658194","0 PAYLOAD C","1 39210U 13037C   13353.32348664  .00001716  00000-0  15990-3 0  9992","2 39210 097.6882 008.3590 0031912 251.0358 108.7409 14.95198485 22694"
"2.0","GENERATED VIA SPACE-TRACK.ORG API","2013-12-19T12:22:16","18 SPCS","PAYLOAD A","2013-037A","EARTH","TEME","UTC","SGP4","2013-12-19T10:19:57.690048","14.67963447","0.00073640","98.0487","8.6805","240.4348","119.6123","0","U","39208","999","2237","0.00010842000000","0.00000573","0.0000000000000","7045.718","98.095","672.772","662.395","PAYLOAD","LARGE","PRC","2013-07-19","TSC","","1600747","94657408","0 PAYLOAD A","1 39208U 13037A   13353.43052882  .00000573  00000-0  10842-3 0  9996","2 39208 098.0487 008.6805 0007364 240.4348 119.6123 14.67963447 22370"
"2.0","GENERATED VIA SPACE-TRACK.ORG API","2013-12-19T12:50:19","18 SPCS","PAYLOAD B","2013-037B","EARTH","TEME","UTC","SGP4","2013-12-19T10:42:57.044447","14.67326243","0.00034860","98.0481","8.4985","227.2977","132.7939","0","U","39209","999","2235","0.00013931000000","0.00000739","0.0000000000000","7047.758","98.137","672.080","667.166","PAYLOAD","LARGE","PRC","2013-07-19","TSC","","1600780","94658180","0 PAYLOAD B","1 39209U 13037B   13353.44649357  .00000739  00000-0  13931-3 0  9993","2 39209 098.0481 008.4985 0003486 227.2977 132.7939 14.67326243 22350"
"2.0","GENERATED VIA SPACE-TRACK.ORG API","2013-12-19T14:42:40","18 SPCS","PAYLOAD B","2013-037B","EARTH","TEME","UTC","SGP4","2013-12-19T12:21:08.832383","14.67326131","0.00034410","98.0485","8.5653","227.0044","133.0849","0","U","39209","999","2236","0.00013616000000","0.00000721","0.0000000000000","7047.758","98.137","672.048","667.198","PAYLOAD","LARGE","PRC","2013-07-19","TSC","","1600794","94658332","0 PAYLOAD B","1 39209U 13037B   13353.51468556  .00000721  00000-0  13616-3 0  9992","2 39209 098.0485 008.5653 0003441 227.0044 133.0849 14.67326131 22362"
"2.0","GENERATED VIA SPACE-TRACK.ORG API","2013-12-19T16:43:06","18 SPCS","PAYLOAD B","2013-037B","EARTH","TEME","UTC","SGP4","2013-12-19T15:37:32.462688","14.67325442","0.00034410","98.0485","8.6992","226.5729","133.5148","0","U","39209","999","2238","0.00011563000000","0.00000605","0.0000000000000","7047.760","98.137","672.050","667.200","PAYLOAD","LARGE","PRC","2013-07-19","TSC","","1600839","94658901","0 PAYLOAD B","1 39209U 13037B   13353.65107017  .00000605  00000-0  11563-3 0  9999","2 39209 098.0485 008.6992 0003441 226.5729 133.5148 14.67325442 22386"
"2.0","GENERATED VIA SPACE-TRACK.ORG API","2013-12-19T22:44:43","18 SPCS","PAYLOAD B","2013-037B","EARTH","TEME","UTC","SGP4","2013-12-19T17:15:44.329248","14.67325531","0.00034410","98.0485","8.7662","226.3571","133.7348","0","U","39209","999","2239","0.00011563000000","0.00000605","0.0000000000000","7047.760","98.137","672.050","667.200","PAYLOAD","LARGE","PRC","2013-07-19","TSC","","1600855","94658989","0 PAYLOAD B","1 39209U 13037B   13353.71926307  .00000605  00000-0  11563-3 0  9997","2 39209 098.0485 008.7662 0003441 226.3571 133.7348 14.67325531 22398"
"2.0","GENERATED VIA SPACE-TRACK.ORG API","2013-12-20T02:12:57","18 SPCS","PAYLOAD A","2013-037A","EARTH","TEME","UTC","SGP4","2013-12-19T20:08:54.007871","14.67963702","0.00071300","98.0516","9.0842","241.3645","118.7333","0","U","39208","999","2243","0.00010647000000","0.00000609","0.0000000000000","7045.717","98.095","672.606","662.559","PAYLOAD","LARGE","PRC","2013-07-19","TSC","","1600938","94659621","0 PAYLOAD A","1 39208U 13037A   13353.83951398  .00000609  00000-0  10647-3 0  9993","2 39208 098.0516 009.0842 0007130 241.3645 118.7333 14.67963702 22434"
